[{"OBJECT_NAME":"OBJECT C","OBJECT_ID":"2025-234C","EPOCH":"2026-03-09T22:07:06.538080","MEAN_MOTION":15.23160401,"ECCENTRICITY":0.00161414,"INCLINATION":97.4354,"RA_OF_ASC_NODE":138.2572,"ARG_OF_PERICENTER":142.8194,"MEAN_ANOMALY":217.4163,"EPHEMERIS_TYPE":0,"CLASSIFICATION_TYPE":"U","NORAD_CAT_ID":66055,"ELEMENT_SET_NO":999,"REV_AT_EPOCH":2157,"BSTAR":0.00030176965,"MEAN_MOTION_DOT":7.085e-5,"MEAN_MOTION_DDOT":0},{"OBJECT_NAME":"HAWK-13C","OBJECT_ID":"2026-004AG","EPOCH":"2026-03-09T21:38:59.886528","MEAN_MOTION":15.18214635,"ECCENTRICITY":0.00046883,"INCLINATION":97.4593,"RA_OF_ASC_NODE":69.4519,"ARG_OF_PERICENTER":342.652,"MEAN_ANOMALY":17.4553,"EPHEMERIS_TYPE":0,"CLASSIFICATION_TYPE":"U","NORAD_CAT_ID":67393,"ELEMENT_SET_NO":999,"REV_AT_EPOCH":869,"BSTAR":0.00032608519,"MEAN_MOTION_DOT":6.606e-5,"MEAN_MOTION_DDOT":0}]
